CSS (TIANHE)            
1 48274U 21035A   24285.50768027  .00063631  00000+0  63981-3 0  9990
2 48274  41.4660  93.6192 0003623 181.7782 178.3045 15.64514654197293
